{"type": "FeatureCollection", "features": [ {"type": "Feature", "properties": {"norad_id": 28649, "name": "IRS-P5 (CARTOSAT-1)", "group": "resource", "lat": 29.923800276956758, "lon": 16.296541797022677, "alt_km": 594.5956884155648, "timestamp": "2025-12-20T14:38:01.614913+00:00", "meta": {"OBJECT_NAME": "IRS-P5 (CARTOSAT-1)", "OBJECT_ID": "2005-017A", "EPOCH": "2025-12-19T23:59:49.912800", "MEAN_MOTION": 14.90427288, "ECCENTRICITY": 8.04e-05, "INCLINATION": 97.5486, "RA_OF_ASC_NODE": 20.0911, "ARG_OF_PERICENTER": 50.7358, "MEAN_ANOMALY": 309.3932, "EPHEMERIS_TYPE": 0, "CLASSIFICATION_TYPE": "U", "NORAD_CAT_ID": 28649, "ELEMENT_SET_NO": 999, "REV_AT_EPOCH": 11712, "BSTAR": 0.00010855912, "MEAN_MOTION_DOT": 1.006e-05, "MEAN_MOTION_DDOT": 0}, "tle": {"line1": "1 28649U 05017A   25353.99988325  .00001006  00000+0  10856-3 0  9992", "line2": "2 28649  97.5486  20.0911 0000804  50.7358 309.3932 14.90427288117129"}}, "geometry": {"type": "Point", "coordinates": [16.296541797022677, 29.923800276956758]}}, {"type": "Feature", "properties": {"norad_id": 28893, "name": "SINAH 1", "group": "resource", "lat": -4.4319949941342704, "lon": 123.83323498058398, "alt_km": 689.1346353719, "timestamp": "2025-12-20T14:38:01.614932+00:00", "meta": {"OBJECT_NAME": "SINAH 1", "OBJECT_ID": "2005-043D", "EPOCH": "2025-12-20T04:48:43.520544", "MEAN_MOTION": 14.63969834, "ECCENTRICITY": 0.00156274, "INCLINATION": 98.2608, "RA_OF_ASC_NODE": 122.7778, "ARG_OF_PERICENTER": 115.138, "MEAN_ANOMALY": 245.1445, "EPHEMERIS_TYPE": 0, "CLASSIFICATION_TYPE": "U", "NORAD_CAT_ID": 28893, "ELEMENT_SET_NO": 999, "REV_AT_EPOCH": 7433, "BSTAR": 6.7692271e-05, "MEAN_MOTION_DOT": 3.06e-06, "MEAN_MOTION_DDOT": 0}, "tle": {"line1": "1 28893U 05043D   25354.20050371  .00000306  00000+0  67692-4 0  9991", "line2": "2 28893  98.2608 122.7778 0015627 115.1380 245.1445 14.63969834 74334"}}, "geometry": {"type": "Point", "coordinates": [123.83323498058398, -4.4319949941342704]}}, {"type": "Feature", "properties": {"norad_id": 29079, "name": "EROS B", "group": "resource", "lat": 68.18803190529103, "lon": -49.62002439535319, "alt_km": 352.662764826312, "timestamp": "2025-12-20T14:38:01.614956+00:00", "meta": {"OBJECT_NAME": "EROS B", "OBJECT_ID": "2006-014A", "EPOCH": "2025-12-20T06:31:09.389280", "MEAN_MOTION": 15.70577208, "ECCENTRICITY": 0.00035131, "INCLINATION": 97.3467, "RA_OF_ASC_NODE": 111.217, "ARG_OF_PERICENTER": 310.3205, "MEAN_ANOMALY": 49.775, "EPHEMERIS_TYPE": 0, "CLASSIFICATION_TYPE": "U", "NORAD_CAT_ID": 29079, "ELEMENT_SET_NO": 999, "REV_AT_EPOCH": 9198, "BSTAR": 0.0010589281, "MEAN_MOTION_DOT": 0.00131867, "MEAN_MOTION_DDOT": 0}, "tle": {"line1": "1 29079U 06014A   25354.27163645  .00131867  00000+0  10589-2 0  9991", "line2": "2 29079  97.3467 111.2170 0003513 310.3205  49.7750 15.70577208 91985"}}, "geometry": {"type": "Point", "coordinates": [-49.62002439535319, 68.18803190529103]}}, {"type": "Feature", "properties": {"norad_id": 29228, "name": "RESURS-DK 1", "group": "resource", "lat": -35.12021311579503, "lon": -83.60239970470843, "alt_km": 531.2650938401721, "timestamp": "2025-12-20T14:38:01.614972+00:00", "meta": {"OBJECT_NAME": "RESURS-DK 1", "OBJECT_ID": "2006-021A", "EPOCH": "2025-12-20T05:44:10.081248", "MEAN_MOTION": 15.12199508, "ECCENTRICITY": 0.00068657, "INCLINATION": 69.9338, "RA_OF_ASC_NODE": 82.4576, "ARG_OF_PERICENTER": 252.7502, "MEAN_ANOMALY": 107.2912, "EPHEMERIS_TYPE": 0, "CLASSIFICATION_TYPE": "U", "NORAD_CAT_ID": 29228, "ELEMENT_SET_NO": 999, "REV_AT_EPOCH": 7551, "BSTAR": 0.00011221682, "MEAN_MOTION_DOT": 1.835e-05, "MEAN_MOTION_DDOT": 0}, "tle": {"line1": "1 29228U 06021A   25354.23900557  .00001835  00000+0  11222-3 0  9999", "line2": "2 29228  69.9338  82.4576 0006865 252.7502 107.2912 15.12199508 75514"}}, "geometry": {"type": "Point", "coordinates": [-83.60239970470843, -35.12021311579503]}}, {"type": "Feature", "properties": {"norad_id": 29268, "name": "ARIRANG-2 (KOMPSAT-2)", "group": "resource", "lat": -80.17270200773403, "lon": -124.74785664003693, "alt_km": 676.788603756333, "timestamp": "2025-12-20T14:38:01.614985+00:00", "meta": {"OBJECT_NAME": "ARIRANG-2 (KOMPSAT-2)", "OBJECT_ID": "2006-031A", "EPOCH": "2025-12-20T07:36:22.314816", "MEAN_MOTION": 14.6449869, "ECCENTRICITY": 0.00131814, "INCLINATION": 97.8253, "RA_OF_ASC_NODE": 182.42, "ARG_OF_PERICENTER": 283.0743, "MEAN_ANOMALY": 250.0582, "EPHEMERIS_TYPE": 0, "CLASSIFICATION_TYPE": "U", "NORAD_CAT_ID": 29268, "ELEMENT_SET_NO": 999, "REV_AT_EPOCH": 3529, "BSTAR": -1.1251353e-05, "MEAN_MOTION_DOT": -1.05e-06, "MEAN_MOTION_DDOT": 0}, "tle": {"line1": "1 29268U 06031A   25354.31692494 -.00000105  00000+0 -11251-4 0  9995", "line2": "2 29268  97.8253 182.4200 0013181 283.0743 250.0582 14.64498690 35293"}}, "geometry": {"type": "Point", "coordinates": [-124.74785664003693, -80.17270200773403]}}, {"type": "Feature", "properties": {"norad_id": 29709, "name": "LAPAN-TUBSAT", "group": "resource", "lat": 81.86915121026237, "lon": -105.58685695442885, "alt_km": 596.7549613235105, "timestamp": "2025-12-20T14:38:01.614996+00:00", "meta": {"OBJECT_NAME": "LAPAN-TUBSAT", "OBJECT_ID": "2007-001A", "EPOCH": "2025-12-20T06:08:55.856256", "MEAN_MOTION": 14.85679996, "ECCENTRICITY": 0.00133638, "INCLINATION": 98.1251, "RA_OF_ASC_NODE": 344.5673, "ARG_OF_PERICENTER": 51.8762, "MEAN_ANOMALY": 308.3655, "EPHEMERIS_TYPE": 0, "CLASSIFICATION_TYPE": "U", "NORAD_CAT_ID": 29709, "ELEMENT_SET_NO": 999, "REV_AT_EPOCH": 2458, "BSTAR": 4.7666326e-05, "MEAN_MOTION_DOT": 3.56e-06, "MEAN_MOTION_DDOT": 0}, "tle": {"line1": "1 29709U 07001A   25354.25620204  .00000356  00000+0  47666-4 0  9991", "line2": "2 29709  98.1251 344.5673 0013363  51.8762 308.3655 14.85679996 24585"}}, "geometry": {"type": "Point", "coordinates": [-105.58685695442885, 81.86915121026237]}}, {"type": "Feature", "properties": {"norad_id": 31113, "name": "HAIYANG-1B", "group": "resource", "lat": -46.76495465164021, "lon": 149.59583340942987, "alt_km": 803.7541630968799, "timestamp": "2025-12-20T14:38:01.615008+00:00", "meta": {"OBJECT_NAME": "HAIYANG-1B", "OBJECT_ID": "2007-010A", "EPOCH": "2025-12-19T12:24:07.786656", "MEAN_MOTION": 14.30967225, "ECCENTRICITY": 0.0013939, "INCLINATION": 98.332, "RA_OF_ASC_NODE": 337.5151, "ARG_OF_PERICENTER": 18.7934, "MEAN_ANOMALY": 341.3762, "EPHEMERIS_TYPE": 0, "CLASSIFICATION_TYPE": "U", "NORAD_CAT_ID": 31113, "ELEMENT_SET_NO": 999, "REV_AT_EPOCH": 97493, "BSTAR": 4.3711e-05, "MEAN_MOTION_DOT": 7.3e-07, "MEAN_MOTION_DDOT": 0}, "tle": {"line1": "1 31113U 07010A   25353.51675679  .00000073  00000+0  43711-4 0  9990", "line2": "2 31113  98.3320 337.5151 0013939  18.7934 341.3762 14.30967225974935"}}, "geometry": {"type": "Point", "coordinates": [149.59583340942987, -46.76495465164021]}}, {"type": "Feature", "properties": {"norad_id": 31598, "name": "COSMO-SKYMED 1", "group": "resource", "lat": -27.688202922606575, "lon": -175.769684880015, "alt_km": 586.0530528075542, "timestamp": "2025-12-20T14:38:01.615019+00:00", "meta": {"OBJECT_NAME": "COSMO-SKYMED 1", "OBJECT_ID": "2007-023A", "EPOCH": "2025-12-20T06:43:52.614048", "MEAN_MOTION": 14.95820698, "ECCENTRICITY": 0.00015784, "INCLINATION": 97.8837, "RA_OF_ASC_NODE": 179.7292, "ARG_OF_PERICENTER": 84.2773, "MEAN_ANOMALY": 275.8628, "EPHEMERIS_TYPE": 0, "CLASSIFICATION_TYPE": "U", "NORAD_CAT_ID": 31598, "ELEMENT_SET_NO": 999, "REV_AT_EPOCH": 303, "BSTAR": 0.00027225827, "MEAN_MOTION_DOT": 2.98e-05, "MEAN_MOTION_DDOT": 0}, "tle": {"line1": "1 31598U 07023A   25354.28047007  .00002980  00000+0  27226-3 0  9995", "line2": "2 31598  97.8837 179.7292 0001578  84.2773 275.8628 14.95820698  3035"}}, "geometry": {"type": "Point", "coordinates": [-175.769684880015, -27.688202922606575]}}, {"type": "Feature", "properties": {"norad_id": 31698, "name": "TERRASAR-X", "group": "resource", "lat": -70.19029332696337, "lon": 21.163029644463943, "alt_km": 516.9082381974295, "timestamp": "2025-12-20T14:38:01.615030+00:00", "meta": {"OBJECT_NAME": "TERRASAR-X", "OBJECT_ID": "2007-026A", "EPOCH": "2025-12-19T12:04:27.729408", "MEAN_MOTION": 15.19152518, "ECCENTRICITY": 0.0001854, "INCLINATION": 97.4454, "RA_OF_ASC_NODE": 358.785, "ARG_OF_PERICENTER": 93.3795, "MEAN_ANOMALY": 266.7652, "EPHEMERIS_TYPE": 0, "CLASSIFICATION_TYPE": "U", "NORAD_CAT_ID": 31698, "ELEMENT_SET_NO": 999, "REV_AT_EPOCH": 2594, "BSTAR": 3.366e-05, "MEAN_MOTION_DOT": 6.4e-06, "MEAN_MOTION_DDOT": 0}, "tle": {"line1": "1 31698U 07026A   25353.50309872  .00000640  00000+0  33660-4 0  9995", "line2": "2 31698  97.4454 358.7850 0001854  93.3795 266.7652 15.19152518 25944"}}, "geometry": {"type": "Point", "coordinates": [21.163029644463943, -70.19029332696337]}}, {"type": "Feature", "properties": {"norad_id": 32060, "name": "WORLDVIEW-1 (WV-1)", "group": "resource", "lat": 82.40916690110382, "lon": 35.28388256766998, "alt_km": 483.29324978423847, "timestamp": "2025-12-20T14:38:01.615041+00:00", "meta": {"OBJECT_NAME": "WORLDVIEW-1 (WV-1)", "OBJECT_ID": "2007-041A", "EPOCH": "2025-12-20T01:38:54.044448", "MEAN_MOTION": 15.24802283, "ECCENTRICITY": 0.00010014, "INCLINATION": 97.3843, "RA_OF_ASC_NODE": 111.447, "ARG_OF_PERICENTER": 119.0221, "MEAN_ANOMALY": 241.1117, "EPHEMERIS_TYPE": 0, "CLASSIFICATION_TYPE": "U", "NORAD_CAT_ID": 32060, "ELEMENT_SET_NO": 999, "REV_AT_EPOCH": 1559, "BSTAR": 0.00024422426, "MEAN_MOTION_DOT": 5.987e-05, "MEAN_MOTION_DDOT": 0}, "tle": {"line1": "1 32060U 07041A   25354.06868107  .00005987  00000+0  24422-3 0  9993", "line2": "2 32060  97.3843 111.4470 0001001 119.0221 241.1117 15.24802283 15595"}}, "geometry": {"type": "Point", "coordinates": [35.28388256766998, 82.40916690110382]}}]}